{
  "type": "FeatureCollection",
  "features": [
    {
      "type": "Feature",
      "properties": {
        "campus": "의료원",
        "label": "의료원",
        "color": "#F9A8D4"
      },
      "geometry": {
        "type": "Polygon",
        "coordinates": [
          [
            [127.0250135, 37.5907019],
            [127.0247079, 37.5902952],
            [127.0248057, 37.5898884],
            [127.0251724, 37.5893849],
            [127.025869, 37.58892],
            [127.0258079, 37.5885714],
            [127.0259668, 37.5881743],
            [127.0255512, 37.5873705],
            [127.0252824, 37.5862858],
            [127.0274412, 37.5862645],
            [127.027371, 37.5866941],
            [127.0277454, 37.5869722],
            [127.0283962, 37.5876294],
            [127.0283094, 37.5882425],
            [127.0281446, 37.588546],
            [127.0275625, 37.5889185],
            [127.0273759, 37.5892604],
            [127.0272555, 37.5894953],
            [127.0272419, 37.589614],
            [127.0272192, 37.5896806],
            [127.0271602, 37.589731],
            [127.0270534, 37.5897832],
            [127.0268627, 37.5898065],
            [127.0264583, 37.5898459],
            [127.0262608, 37.5899909],
            [127.0257132, 37.5903233],
            [127.0254779, 37.5904642],
            [127.0253258, 37.5905596],
            [127.0251691, 37.5906549],
            [127.0250442, 37.5907305],
            [127.0250135, 37.5907019]
          ]
        ]
      }
    },
    {
      "type": "Feature",
      "properties": {
        "campus": "녹지캠퍼스",
        "label": "녹지캠퍼스",
        "color": "#86EFAC"
      },
      "geometry": {
        "type": "Polygon",
        "coordinates": [
          [
            [127.0250479, 37.5907674],
            [127.0249403, 37.5906719],
            [127.0245315, 37.5906288],
            [127.0243066, 37.5907475],
            [127.0241567, 37.5912064],
            [127.0243066, 37.5916329],
            [127.0245928, 37.5918974],
            [127.0249062, 37.5920378],
            [127.0250629, 37.5920756],
            [127.0248653, 37.5922429],
            [127.0244985, 37.5923475],
            [127.0243033, 37.5925389],
            [127.0242901, 37.5927826],
            [127.0244621, 37.5929609],
            [127.0247235, 37.5930317],
            [127.0250278, 37.5929714],
            [127.0252428, 37.5927774],
            [127.0253917, 37.5925992],
            [127.0255009, 37.592531],
            [127.0258416, 37.5923056],
            [127.0261327, 37.5926149],
            [127.0260135, 37.5927101],
            [127.0260827, 37.5928296],
            [127.025815, 37.593101],
            [127.0257971, 37.5931578],
            [127.0256214, 37.5932714],
            [127.0256429, 37.5933425],
            [127.0256034, 37.5934192],
            [127.0256823, 37.5935101],
            [127.0254564, 37.5936891],
            [127.0258222, 37.5940357],
            [127.0260983, 37.5938539],
            [127.0262238, 37.5939079],
            [127.0265501, 37.5938596],
            [127.0267078, 37.5937459],
            [127.0267652, 37.5935811],
            [127.0267401, 37.5934732],
            [127.0266792, 37.5933766],
            [127.0273246, 37.5928936],
            [127.0276839, 37.5929249],
            [127.0278757, 37.5929508],
            [127.0280715, 37.5929217],
            [127.0282552, 37.5928344],
            [127.0283123, 37.5927503],
            [127.0283327, 37.5926145],
            [127.028398, 37.5924658],
            [127.0285327, 37.5923299],
            [127.028753, 37.5922523],
            [127.0289407, 37.5922459],
            [127.0290795, 37.5921489],
            [127.0291489, 37.5919234],
            [127.0293147, 37.5917356],
            [127.0296369, 37.5914991],
            [127.0299592, 37.5912813],
            [127.0301166, 37.5912051],
            [127.0305024, 37.5911527],
            [127.0305234, 37.5910061],
            [127.0304815, 37.5908351],
            [127.0304095, 37.5905169],
            [127.0303353, 37.5903442],
            [127.0301914, 37.590275],
            [127.0300144, 37.5902582],
            [127.0298776, 37.5902825],
            [127.0296205, 37.5903816],
            [127.0296558, 37.5904265],
            [127.0294506, 37.5905667],
            [127.0293397, 37.5904676],
            [127.0291698, 37.5905554],
            [127.0291014, 37.5905461],
            [127.0285069, 37.5906844],
            [127.0283074, 37.5906839],
            [127.028208, 37.5904408],
            [127.0278795, 37.5902319],
            [127.0278406, 37.5901188],
            [127.0277671, 37.5900435],
            [127.0275294, 37.5902113],
            [127.0273596, 37.5901837],
            [127.0273306, 37.5898546],
            [127.0271703, 37.5897589],
            [127.0264602, 37.5898702],
            [127.0257416, 37.5903362],
            [127.0250478, 37.5907675],
            [127.0250479, 37.5907674]
          ]
        ]
      }
    },
    {
      "type": "Feature",
      "properties": {
        "campus": "인문사회계",
        "label": "인문·사회계",
        "color": "#2563EB"
      },
      "geometry": {
        "type": "Polygon",
        "coordinates": [
          [
            [127.0315144, 37.5909701],
            [127.0319498, 37.5909537],
            [127.0328724, 37.5912576],
            [127.0323873, 37.5924205],
            [127.0329686, 37.5923416],
            [127.0331729, 37.5918436],
            [127.0333405, 37.5914618],
            [127.0337536, 37.5915451],
            [127.0344896, 37.5918901],
            [127.0354848, 37.592424],
            [127.0359824, 37.5923337],
            [127.0360238, 37.5922022],
            [127.0360135, 37.5918737],
            [127.036086, 37.5916765],
            [127.0361484, 37.5911029],
            [127.0361233, 37.5904648],
            [127.0359018, 37.5897868],
            [127.0350274, 37.5887814],
            [127.0326615, 37.5865641],
            [127.0309369, 37.5864325],
            [127.0309231, 37.5865145],
            [127.0303783, 37.5865309],
            [127.0299301, 37.586744],
            [127.029999, 37.5869571],
            [127.0304197, 37.5873669],
            [127.0303852, 37.5877713],
            [127.0305025, 37.5880008],
            [127.0305094, 37.5881429],
            [127.0303025, 37.5883014],
            [127.0302887, 37.5885528],
            [127.0303783, 37.588744],
            [127.0302335, 37.5888315],
            [127.0302611, 37.589214],
            [127.0304266, 37.5895418],
            [127.0302667, 37.5898195],
            [127.0304383, 37.5900915],
            [127.0305584, 37.5900847],
            [127.0309359, 37.5903294],
            [127.0309359, 37.5904857],
            [127.0307557, 37.5906489],
            [127.030893, 37.5907441],
            [127.0310732, 37.5906489],
            [127.0312051, 37.5908126],
            [127.031122, 37.5909509],
            [127.0311469, 37.5911134],
            [127.0312716, 37.5910936],
            [127.0314157, 37.5910036],
            [127.0315144, 37.5909701]
          ]
        ]
      }
    },
    {
      "type": "Feature",
      "properties": {
        "campus": "자연계",
        "label": "자연계",
        "color": "#DC143C"
      },
      "geometry": {
        "type": "Polygon",
        "coordinates": [
          [
            [127.0264663, 37.5815295],
            [127.0266688, 37.581716],
            [127.02674, 37.5820978],
            [127.0271649, 37.5822764],
            [127.0276369, 37.5822835],
            [127.0278116, 37.5825924],
            [127.0280983, 37.5827622],
            [127.028293, 37.5834012],
            [127.0285732, 37.5834012],
            [127.0285834, 37.5835149],
            [127.0288636, 37.5836259],
            [127.0288255, 37.5853629],
            [127.0286073, 37.5853809],
            [127.0282811, 37.5858003],
            [127.0280879, 37.5858507],
            [127.0275902, 37.5856832],
            [127.027497, 37.5860867],
            [127.0273265, 37.5860705],
            [127.0272561, 37.5861389],
            [127.025568, 37.5861308],
            [127.0248337, 37.5862237],
            [127.0244575, 37.5859437],
            [127.0243753, 37.5854856],
            [127.0238445, 37.5851714],
            [127.0237707, 37.5849987],
            [127.0237906, 37.5847331],
            [127.0239598, 37.5844426],
            [127.0240463, 37.5842111],
            [127.0240397, 37.5840441],
            [127.0242301, 37.5834229],
            [127.0244867, 37.5831729],
            [127.0246671, 37.5827342],
            [127.0248048, 37.5826685],
            [127.0255758, 37.5826172],
            [127.025896, 37.5824095],
            [127.0259358, 37.5821991],
            [127.0260534, 37.5817317],
            [127.0264663, 37.5815295]
          ]
        ]
      }
    }
  ]
}
